e   0.3979054      Incl.   16.97099      0.17067502      0.30453208     
P   5.62           H   21.5     G   0.15   q 1.90298217  Q 4.41822446
From 4 observations 2015 Jan. 26-26 (4.4 hr);   RMS error 0.128 arcseconds
# State vector:
#   -1.658760400738   1.555514352265   0.191035645369 AU
#  -10.634859606384  -6.204812027583   3.757316340488 mAU/day
# MOIDs: Me  1.6086 Ve  1.2088 Ea  0.9619 Ma  0.4382
# MOIDs: Ju  1.2030 Sa  5.7441 Ur 14.6462 Ne 25.9659
# Elements written: 15 Feb 2021  6:54:10 (JD 2459260.787616)
# Find_Orb ver: Feb 15 2021 15:54:00
# Perturbers: 00000001 
# Tisserand relative to Earth: 3.43636
# Tisserand relative to Jupiter: 3.01406
# Tisserand relative to Neptune: 10.08266
Orbital elements:
H005737
   Perihelion 2015 Jan 26.546973 TT = 13:07:38 (JD 2457049.046973)
Epoch 2015 Jan 26.0 TT = JDT 2457048.5                  Find_Orb
M 359.85456              (2000.0)            P               Q
n   0.26589635     Peri.   58.78909     -0.71814936     -0.69006618     
a   2.39512284     Node    77.40534      0.60305128     -0.68155404     
e   0.1193330      Incl.    5.28149      0.34726162     -0.24350100     
P   3.71           H   21.5     G   0.15   q 2.10930552  Q 2.68094017
From 4 observations 2015 Jan. 26-26 (4.4 hr);   RMS error 0.187 arcseconds
# State vector:
#   -1.514065583553   1.459183639017   0.166007271208 AU
#   -8.651366441450  -9.045777357170   0.598164026537 mAU/day
# MOIDs: Me  1.7668 Ve  1.3913 Ea  1.1291 Ma  0.4596
# MOIDs: Ju  2.3569 Sa  6.7971 Ur 16.1290 Ne 27.3050
# Elements written: 15 Feb 2021  6:54:10 (JD 2459260.787616)
# Find_Orb ver: Feb 15 2021 15:54:00
# Perturbers: 00000001 
# Tisserand relative to Earth: 3.47759
# Tisserand relative to Jupiter: 3.51396
# Tisserand relative to Neptune: 13.11231
Orbital elements:
H005738
   Perihelion 2012 Nov 21.287863 TT =  6:54:31 (JD 2456252.787863)
Epoch 2015 Jan 26.0 TT = JDT 2457048.5                  Find_Orb
M 179.87741              (2000.0)            P               Q
n   0.22605840     Peri.  335.63275      0.74591636      0.66212133     
a   2.66883838     Node   342.29791     -0.56550773      0.57238166     
e   0.0929399      Incl.   13.72419     -0.35186613      0.48370917     
P   4.36           H   20.5     G   0.15   q 2.42079675  Q 2.91688000
From 4 observations 2015 Jan. 26-26 (4.4 hr);   RMS error 0.143 arcseconds
# State vector:
#   -2.175241697640   1.922211577064   0.285683637099 AU
#   -6.353591015950  -6.881483087806  -2.072843245536 mAU/day
# MOIDs: Me  1.9950 Ve  1.6935 Ea  1.4144 Ma  1.0406
# MOIDs: Ju  2.4277 Sa  6.2216 Ur 15.4058 Ne 27.1369
# Elements written: 15 Feb 2021  6:54:10 (JD 2459260.787616)
# Find_Orb ver: Feb 15 2021 15:54:00
# Perturbers: 00000001 
# Tisserand relative to Earth: 3.53499
# Tisserand relative to Jupiter: 3.33509
# Tisserand relative to Neptune: 11.84302
Orbital elements:
H005739
   Perihelion 2015 Jan 26.552529 TT = 13:15:38 (JD 2457049.052529)
Epoch 2015 Jan 26.0 TT = JDT 2457048.5                  Find_Orb
M 359.90234              (2000.0)            P               Q
n   0.17674524     Peri.   29.36997     -0.73742937     -0.65363301     
a   3.14463963     Node   108.78850      0.57931859     -0.74163685     
e   0.1740230      Incl.   10.35580      0.34725766     -0.15079340     
P   5.58           H   20.1     G   0.15   q 2.59739995  Q 3.69187931
From 4 observations 2015 Jan. 26-26 (4.8 hr);   RMS error 0.118 arcseconds
# State vector:
#   -1.914718157994   1.740108417019   0.228831335670 AU
#   -7.562259777738  -8.560412212064   1.812093873190 mAU/day
# MOIDs: Me  2.2568 Ve  1.8796 Ea  1.6172 Ma  0.9468
# MOIDs: Ju  1.4006 Sa  6.0714 Ur 15.6201 Ne 26.3466
# Elements written: 15 Feb 2021  6:54:10 (JD 2459260.787616)
# Find_Orb ver: Feb 15 2021 15:54:00
# Perturbers: 00000001 
# Tisserand relative to Earth: 3.75362
# Tisserand relative to Jupiter: 3.16080
# Tisserand relative to Neptune: 10.18852
Orbital elements:
H005740
   Perihelion 2015 Jan 26.631751 TT = 15:09:43 (JD 2457049.131751)
Epoch 2015 Jan 27.0 TT = JDT 2457049.5   Earth MOID: 0.9436
M   0.10089              (2000.0)            P               Q
n   0.27397550     Peri.   50.65353     -0.71027331     -0.69807928     
a   2.34780250     Node    84.86378      0.61464809     -0.67772959     
e   0.1803308      Incl.    5.21555      0.34310279     -0.23101496     
P   3.60           H   20.6     G   0.15   q 1.92442129  Q 2.77118372
From 4 observations 2015 Jan. 26-26 (70.0 min);   RMS error 0.180 arcseconds
# State vector:
#   -1.366689270208   1.348057995623   0.135267849316 AU
#   -9.405610314351  -9.613908560504   0.776542418147 mAU/day
# MOIDs: Me  1.5851 Ve  1.2062 Ea  0.9436 Ma  0.2766
# MOIDs: Ju  2.2798 Sa  6.8907 Ur 16.2820 Ne 27.2479
# Elements written: 15 Feb 2021  6:54:10 (JD 2459260.787616)
# Find_Orb ver: Feb 15 2021 15:54:00
# Perturbers: 00000001 
# Tisserand relative to Earth: 3.42772
# Tisserand relative to Jupiter: 3.53220
# Tisserand relative to Neptune: 13.35472
Orbital elements:
H005741
   Perihelion 2015 Jan 26.632661 TT = 15:11:01 (JD 2457049.132661)
Epoch 2015 Jan 27.0 TT = JDT 2457049.5   Earth MOID: 0.7890
M   0.10510              (2000.0)            P               Q
n   0.28612457     Peri.  113.56973     -0.69871316     -0.71497602     
a   2.28086341     Node    20.81714      0.62844349     -0.62990370     
e   0.2238241      Incl.    3.98246      0.34184599     -0.30336546     
P   3.44           H   23.1     G   0.15   q 1.77035107  Q 2.79137575
From 4 observations 2015 Jan. 26-26 (70.0 min);   RMS error 0.109 arcseconds
# State vector:
#   -1.236767103294   1.261684609229   0.112703208796 AU
#  -10.227221279237  -9.990351245484  -0.397077265002 mAU/day
# MOIDs: Me  1.4329 Ve  1.0520 Ea  0.7890 Ma  0.1212
# MOIDs: Ju  2.2606 Sa  6.9594 Ur 16.4062 Ne 27.2394
# Elements written: 15 Feb 2021  6:54:10 (JD 2459260.787616)
# Find_Orb ver: Feb 15 2021 15:54:00
# Perturbers: 00000001 
# Tisserand relative to Earth: 3.37520
# Tisserand relative to Jupiter: 3.56873
# Tisserand relative to Neptune: 13.71873
Orbital elements:
H005742
   Perihelion 2015 Jan 26.631749 TT = 15:09:43 (JD 2457049.131749)
Epoch 2015 Jan 27.0 TT = JDT 2457049.5   Earth MOID: 0.9438
M   0.10550              (2000.0)            P               Q
n   0.28649005     Peri.  101.94322     -0.71010400     -0.70289369     
a   2.27892315     Node    33.42279      0.61343833     -0.64629751     
e   0.1555567      Incl.    4.28372      0.34560919     -0.29705215     
P   3.44           H   21.6     G   0.15   q 1.92442129  Q 2.63342502
From 4 observations 2015 Jan. 26-26 (70.0 min);   RMS error 0.038 arcseconds
# State vector:
#   -1.366364113576   1.347838074635   0.140637642663 AU
#   -9.370565571119  -9.478207368172  -0.205939652148 mAU/day
# MOIDs: Me  1.5842 Ve  1.2063 Ea  0.9438 Ma  0.2736
# MOIDs: Ju  2.4053 Sa  6.9499 Ur 16.2911 Ne 27.3685
# Elements written: 15 Feb 2021  6:54:10 (JD 2459260.787616)
# Find_Orb ver: Feb 15 2021 15:54:00
# Perturbers: 00000001 
# Tisserand relative to Earth: 3.41294
# Tisserand relative to Jupiter: 3.58706
# Tisserand relative to Neptune: 13.73677
Orbital elements:
H005743
   Perihelion 2015 Jan 14.798378 TT = 19:09:39 (JD 2457037.298378)
Epoch 2015 Jan 27.0 TT = JDT 2457049.5                  Find_Orb
M   2.96450              (2000.0)            P               Q
n   0.24296014     Peri.  101.51662     -0.65311439     -0.75630373     
a   2.54358361     Node    29.36976      0.66104268     -0.59390954     
e   0.2210601      Incl.    4.44723      0.36941055     -0.27436492     
P   4.06           H   21.0     G   0.15   q 1.98129853  Q 3.10586869
From 4 observations 2015 Jan. 26-26 (70.0 min);   RMS error 0.048 arcseconds
# State vector:
#   -1.411142591090   1.384564963975   0.147671537749 AU
#   -9.605525428205  -9.478984231569  -0.276078948476 mAU/day
# MOIDs: Me  1.6476 Ve  1.2633 Ea  1.0016 Ma  0.3347
# MOIDs: Ju  1.9662 Sa  6.6986 Ur 16.1474 Ne 26.9471
# Elements written: 15 Feb 2021  6:54:10 (JD 2459260.787616)
# Find_Orb ver: Feb 15 2021 15:54:00
# Perturbers: 00000001 
# Tisserand relative to Earth: 3.49459
# Tisserand relative to Jupiter: 3.40530
# Tisserand relative to Neptune: 12.38710
Orbital elements:
H005744
   Perihelion 2015 Jan 26.550666 TT = 13:12:57 (JD 2457049.050666)
Epoch 2015 Jan 26.0 TT = JDT 2457048.5                  Find_Orb
M 359.89591              (2000.0)            P               Q
n   0.18902510     Peri.   74.76808     -0.74468029     -0.66078795     
a   3.00692822     Node    63.77308      0.56514058     -0.69911010     
e   0.0299469      Incl.    6.00623      0.35505967     -0.27313795     
P   5.21           H   19.6     G   0.15   q 2.91687999  Q 3.09697646
From 5 observations 2015 Jan. 26-26 (4.8 hr);   RMS error 0.080 arcseconds
# State vector:
#   -2.171547275833   1.925061333780   0.294465950108 AU
#   -6.756760352807  -7.665070462097   0.281317088929 mAU/day
# MOIDs: Me  2.5451 Ve  2.1995 Ea  1.9379 Ma  1.2638
# MOIDs: Ju  1.9056 Sa  6.0793 Ur 15.3676 Ne 26.7870
# Elements written: 15 Feb 2021  6:54:10 (JD 2459260.787616)
# Find_Orb ver: Feb 15 2021 15:54:00
# Perturbers: 00000001 
# Tisserand relative to Earth: 3.78008
# Tisserand relative to Jupiter: 3.24179
# Tisserand relative to Neptune: 10.62861
Orbital elements:
H005745
   Perihelion 2015 Jan 26.552528 TT = 13:15:38 (JD 2457049.052528)
Epoch 2015 Jan 26.0 TT = JDT 2457048.5                  Find_Orb
M 359.87029              (2000.0)            P               Q
n   0.23474410     Peri.   27.07885     -0.73648913     -0.64749600     
a   2.60259298     Node   111.16193      0.57638906     -0.75218042     
e   0.0019953      Incl.   12.11914      0.35406129     -0.12236639     
P   4.20           H   20.5     G   0.15   q 2.59739999  Q 2.60778596
From 5 observations 2015 Jan. 26-26 (4.8 hr);   RMS error 0.107 arcseconds
# State vector:
#   -1.912333761571   1.740096288408   0.248054902383 AU
#   -6.920930937814  -7.890750165198   1.997600961050 mAU/day
